IRIDIUM 136             
1 42962U 17061H   24119.17174484  .00000486  00000+0  16655-3 0  9994
2 42962  86.3998 351.2323 0002479  86.2168 273.9311 14.34218230343037
